KUIPER-00125            
1 65954U 25228H   25325.82260219  .00039506  00000+0  11338-2 0  9995
2 65954  51.8766 121.3536 0005670 291.5402  68.4979 15.35462232  7201
KUIPER-00126            
1 65955U 25228J   25326.66670139 -.00101587  00000+0 -49824-2 0  9997
2 65955  51.8912 118.3864 0005813 305.1442 193.8724 15.18003552  5060
KUIPER-00127            
1 65956U 25228K   25326.66670139 -.00759392  00000+0 -32213-1 0  9994
2 65956  51.8832 117.6732 0004403 297.4404 237.4654 15.25060163  5193
KUIPER-00128            
1 65957U 25228L   25325.82275677  .00038738  00000+0  11237-2 0  9996
2 65957  51.8780 121.3629 0006205 286.7225  73.3079 15.35133021  7204
KUIPER-00129            
1 65958U 25228M   25325.81970949  .00039576  00000+0  11337-2 0  9992
2 65958  51.8778 121.3425 0006083 276.9438  83.0856 15.35517096  7206
KUIPER-00130            
1 65959U 25228N   25326.47795456  .00063138  00000+0  18266-2 0  9993
2 65959  51.8772 118.2414 0004943 296.1010  63.9466 15.35001762  7300
KUIPER-00134            
1 65960U 25228P   25326.47976066  .00032490  00000+0  94642-3 0  9993
2 65960  51.8765 118.2572 0005698 294.0985  65.9404 15.35088321  7305
KUIPER-00135            
1 65961U 25228Q   25326.47971459  .00035352  00000+0  10338-2 0  9994
2 65961  51.8764 118.2666 0003847 285.0491  75.0069 15.34931465  7309
