<?xml version="1.0" encoding="UTF-8"?>
<ndm xmlns:xsi="http://www.w3.org/2001/XMLSchema-instance" xsi:noNamespaceSchemaLocation="https://sanaregistry.org/r/ndmxml_unqualified/ndmxml-2.0.0-master-2.0.xsd">
<omm id="CCSDS_OMM_VERS" version="2.0">
<header><CREATION_DATE/><ORIGINATOR/></header><body><segment><metadata><OBJECT_NAME>KUIPER-00125</OBJECT_NAME><OBJECT_ID>2025-228H</OBJECT_ID><CENTER_NAME>EARTH</CENTER_NAME><REF_FRAME>TEME</REF_FRAME><TIME_SYSTEM>UTC</TIME_SYSTEM><MEAN_ELEMENT_THEORY>SGP4</MEAN_ELEMENT_THEORY></metadata><data><meanElements><EPOCH>2025-11-21T19:44:32.829216</EPOCH><MEAN_MOTION>15.35462232</MEAN_MOTION><ECCENTRICITY>.00056701</ECCENTRICITY><INCLINATION>51.8766</INCLINATION><RA_OF_ASC_NODE>121.3536</RA_OF_ASC_NODE><ARG_OF_PERICENTER>291.5402</ARG_OF_PERICENTER><MEAN_ANOMALY>68.4979</MEAN_ANOMALY></meanElements><tleParameters><EPHEMERIS_TYPE>0</EPHEMERIS_TYPE><CLASSIFICATION_TYPE>U</CLASSIFICATION_TYPE><NORAD_CAT_ID>65954</NORAD_CAT_ID><ELEMENT_SET_NO>999</ELEMENT_SET_NO><REV_AT_EPOCH>720</REV_AT_EPOCH><BSTAR>.11337715E-2</BSTAR><MEAN_MOTION_DOT>.39506E-3</MEAN_MOTION_DOT><MEAN_MOTION_DDOT>0</MEAN_MOTION_DDOT></tleParameters></data></segment></body></omm>
<omm id="CCSDS_OMM_VERS" version="2.0">
<header><CREATION_DATE/><ORIGINATOR/></header><body><segment><metadata><OBJECT_NAME>KUIPER-00126</OBJECT_NAME><OBJECT_ID>2025-228J</OBJECT_ID><CENTER_NAME>EARTH</CENTER_NAME><REF_FRAME>TEME</REF_FRAME><TIME_SYSTEM>UTC</TIME_SYSTEM><MEAN_ELEMENT_THEORY>SGP4</MEAN_ELEMENT_THEORY></metadata><data><meanElements><EPOCH>2025-11-22T16:00:03.000096</EPOCH><MEAN_MOTION>15.18003552</MEAN_MOTION><ECCENTRICITY>.00058135</ECCENTRICITY><INCLINATION>51.8912</INCLINATION><RA_OF_ASC_NODE>118.3864</RA_OF_ASC_NODE><ARG_OF_PERICENTER>305.1442</ARG_OF_PERICENTER><MEAN_ANOMALY>193.8724</MEAN_ANOMALY></meanElements><tleParameters><EPHEMERIS_TYPE>0</EPHEMERIS_TYPE><CLASSIFICATION_TYPE>U</CLASSIFICATION_TYPE><NORAD_CAT_ID>65955</NORAD_CAT_ID><ELEMENT_SET_NO>999</ELEMENT_SET_NO><REV_AT_EPOCH>506</REV_AT_EPOCH><BSTAR>-.49823782E-2</BSTAR><MEAN_MOTION_DOT>-.101587E-2</MEAN_MOTION_DOT><MEAN_MOTION_DDOT>0</MEAN_MOTION_DDOT></tleParameters></data></segment></body></omm>
<omm id="CCSDS_OMM_VERS" version="2.0">
<header><CREATION_DATE/><ORIGINATOR/></header><body><segment><metadata><OBJECT_NAME>KUIPER-00127</OBJECT_NAME><OBJECT_ID>2025-228K</OBJECT_ID><CENTER_NAME>EARTH</CENTER_NAME><REF_FRAME>TEME</REF_FRAME><TIME_SYSTEM>UTC</TIME_SYSTEM><MEAN_ELEMENT_THEORY>SGP4</MEAN_ELEMENT_THEORY></metadata><data><meanElements><EPOCH>2025-11-22T16:00:03.000096</EPOCH><MEAN_MOTION>15.25060163</MEAN_MOTION><ECCENTRICITY>.00044034</ECCENTRICITY><INCLINATION>51.8832</INCLINATION><RA_OF_ASC_NODE>117.6732</RA_OF_ASC_NODE><ARG_OF_PERICENTER>297.4404</ARG_OF_PERICENTER><MEAN_ANOMALY>237.4654</MEAN_ANOMALY></meanElements><tleParameters><EPHEMERIS_TYPE>0</EPHEMERIS_TYPE><CLASSIFICATION_TYPE>U</CLASSIFICATION_TYPE><NORAD_CAT_ID>65956</NORAD_CAT_ID><ELEMENT_SET_NO>999</ELEMENT_SET_NO><REV_AT_EPOCH>519</REV_AT_EPOCH><BSTAR>-.32213049E-1</BSTAR><MEAN_MOTION_DOT>-.759392E-2</MEAN_MOTION_DOT><MEAN_MOTION_DDOT>0</MEAN_MOTION_DDOT></tleParameters></data></segment></body></omm>
<omm id="CCSDS_OMM_VERS" version="2.0">
<header><CREATION_DATE/><ORIGINATOR/></header><body><segment><metadata><OBJECT_NAME>KUIPER-00128</OBJECT_NAME><OBJECT_ID>2025-228L</OBJECT_ID><CENTER_NAME>EARTH</CENTER_NAME><REF_FRAME>TEME</REF_FRAME><TIME_SYSTEM>UTC</TIME_SYSTEM><MEAN_ELEMENT_THEORY>SGP4</MEAN_ELEMENT_THEORY></metadata><data><meanElements><EPOCH>2025-11-21T19:44:46.184928</EPOCH><MEAN_MOTION>15.35133021</MEAN_MOTION><ECCENTRICITY>.0006205</ECCENTRICITY><INCLINATION>51.8780</INCLINATION><RA_OF_ASC_NODE>121.3629</RA_OF_ASC_NODE><ARG_OF_PERICENTER>286.7225</ARG_OF_PERICENTER><MEAN_ANOMALY>73.3079</MEAN_ANOMALY></meanElements><tleParameters><EPHEMERIS_TYPE>0</EPHEMERIS_TYPE><CLASSIFICATION_TYPE>U</CLASSIFICATION_TYPE><NORAD_CAT_ID>65957</NORAD_CAT_ID><ELEMENT_SET_NO>999</ELEMENT_SET_NO><REV_AT_EPOCH>720</REV_AT_EPOCH><BSTAR>.11236766E-2</BSTAR><MEAN_MOTION_DOT>.38738E-3</MEAN_MOTION_DOT><MEAN_MOTION_DDOT>0</MEAN_MOTION_DDOT></tleParameters></data></segment></body></omm>
<omm id="CCSDS_OMM_VERS" version="2.0">
<header><CREATION_DATE/><ORIGINATOR/></header><body><segment><metadata><OBJECT_NAME>KUIPER-00129</OBJECT_NAME><OBJECT_ID>2025-228M</OBJECT_ID><CENTER_NAME>EARTH</CENTER_NAME><REF_FRAME>TEME</REF_FRAME><TIME_SYSTEM>UTC</TIME_SYSTEM><MEAN_ELEMENT_THEORY>SGP4</MEAN_ELEMENT_THEORY></metadata><data><meanElements><EPOCH>2025-11-21T19:40:22.899936</EPOCH><MEAN_MOTION>15.35517096</MEAN_MOTION><ECCENTRICITY>.00060836</ECCENTRICITY><INCLINATION>51.8778</INCLINATION><RA_OF_ASC_NODE>121.3425</RA_OF_ASC_NODE><ARG_OF_PERICENTER>276.9438</ARG_OF_PERICENTER><MEAN_ANOMALY>83.0856</MEAN_ANOMALY></meanElements><tleParameters><EPHEMERIS_TYPE>0</EPHEMERIS_TYPE><CLASSIFICATION_TYPE>U</CLASSIFICATION_TYPE><NORAD_CAT_ID>65958</NORAD_CAT_ID><ELEMENT_SET_NO>999</ELEMENT_SET_NO><REV_AT_EPOCH>720</REV_AT_EPOCH><BSTAR>.11336871E-2</BSTAR><MEAN_MOTION_DOT>.39576E-3</MEAN_MOTION_DOT><MEAN_MOTION_DDOT>0</MEAN_MOTION_DDOT></tleParameters></data></segment></body></omm>
<omm id="CCSDS_OMM_VERS" version="2.0">
<header><CREATION_DATE/><ORIGINATOR/></header><body><segment><metadata><OBJECT_NAME>KUIPER-00130</OBJECT_NAME><OBJECT_ID>2025-228N</OBJECT_ID><CENTER_NAME>EARTH</CENTER_NAME><REF_FRAME>TEME</REF_FRAME><TIME_SYSTEM>UTC</TIME_SYSTEM><MEAN_ELEMENT_THEORY>SGP4</MEAN_ELEMENT_THEORY></metadata><data><meanElements><EPOCH>2025-11-22T11:28:15.273984</EPOCH><MEAN_MOTION>15.35001762</MEAN_MOTION><ECCENTRICITY>.00049433</ECCENTRICITY><INCLINATION>51.8772</INCLINATION><RA_OF_ASC_NODE>118.2414</RA_OF_ASC_NODE><ARG_OF_PERICENTER>296.1010</ARG_OF_PERICENTER><MEAN_ANOMALY>63.9466</MEAN_ANOMALY></meanElements><tleParameters><EPHEMERIS_TYPE>0</EPHEMERIS_TYPE><CLASSIFICATION_TYPE>U</CLASSIFICATION_TYPE><NORAD_CAT_ID>65959</NORAD_CAT_ID><ELEMENT_SET_NO>999</ELEMENT_SET_NO><REV_AT_EPOCH>730</REV_AT_EPOCH><BSTAR>.18266427E-2</BSTAR><MEAN_MOTION_DOT>.63138E-3</MEAN_MOTION_DOT><MEAN_MOTION_DDOT>0</MEAN_MOTION_DDOT></tleParameters></data></segment></body></omm>
<omm id="CCSDS_OMM_VERS" version="2.0">
<header><CREATION_DATE/><ORIGINATOR/></header><body><segment><metadata><OBJECT_NAME>KUIPER-00134</OBJECT_NAME><OBJECT_ID>2025-228P</OBJECT_ID><CENTER_NAME>EARTH</CENTER_NAME><REF_FRAME>TEME</REF_FRAME><TIME_SYSTEM>UTC</TIME_SYSTEM><MEAN_ELEMENT_THEORY>SGP4</MEAN_ELEMENT_THEORY></metadata><data><meanElements><EPOCH>2025-11-22T11:30:51.321024</EPOCH><MEAN_MOTION>15.35088321</MEAN_MOTION><ECCENTRICITY>.00056983</ECCENTRICITY><INCLINATION>51.8765</INCLINATION><RA_OF_ASC_NODE>118.2572</RA_OF_ASC_NODE><ARG_OF_PERICENTER>294.0985</ARG_OF_PERICENTER><MEAN_ANOMALY>65.9404</MEAN_ANOMALY></meanElements><tleParameters><EPHEMERIS_TYPE>0</EPHEMERIS_TYPE><CLASSIFICATION_TYPE>U</CLASSIFICATION_TYPE><NORAD_CAT_ID>65960</NORAD_CAT_ID><ELEMENT_SET_NO>999</ELEMENT_SET_NO><REV_AT_EPOCH>730</REV_AT_EPOCH><BSTAR>.94641617E-3</BSTAR><MEAN_MOTION_DOT>.3249E-3</MEAN_MOTION_DOT><MEAN_MOTION_DDOT>0</MEAN_MOTION_DDOT></tleParameters></data></segment></body></omm>
<omm id="CCSDS_OMM_VERS" version="2.0">
<header><CREATION_DATE/><ORIGINATOR/></header><body><segment><metadata><OBJECT_NAME>KUIPER-00135</OBJECT_NAME><OBJECT_ID>2025-228Q</OBJECT_ID><CENTER_NAME>EARTH</CENTER_NAME><REF_FRAME>TEME</REF_FRAME><TIME_SYSTEM>UTC</TIME_SYSTEM><MEAN_ELEMENT_THEORY>SGP4</MEAN_ELEMENT_THEORY></metadata><data><meanElements><EPOCH>2025-11-22T11:30:47.340576</EPOCH><MEAN_MOTION>15.34931465</MEAN_MOTION><ECCENTRICITY>.00038477</ECCENTRICITY><INCLINATION>51.8764</INCLINATION><RA_OF_ASC_NODE>118.2666</RA_OF_ASC_NODE><ARG_OF_PERICENTER>285.0491</ARG_OF_PERICENTER><MEAN_ANOMALY>75.0069</MEAN_ANOMALY></meanElements><tleParameters><EPHEMERIS_TYPE>0</EPHEMERIS_TYPE><CLASSIFICATION_TYPE>U</CLASSIFICATION_TYPE><NORAD_CAT_ID>65961</NORAD_CAT_ID><ELEMENT_SET_NO>999</ELEMENT_SET_NO><REV_AT_EPOCH>730</REV_AT_EPOCH><BSTAR>.10338149E-2</BSTAR><MEAN_MOTION_DOT>.35352E-3</MEAN_MOTION_DOT><MEAN_MOTION_DDOT>0</MEAN_MOTION_DDOT></tleParameters></data></segment></body></omm>

</ndm>
